#dP2018  2 16  0  0  0.00000000      96 __u+U ITR00 FIT  IAC
## 1988 432000.00000000   900.00000000 58165 0.0000000000000
+   87   C01C02C03C04C05C06C07C08C09C10C11C12C13C14E01E02E03
+        E04E05E07E08E09E11E12E14E18E19E24E26E30G01G02G03G05
+        G06G07G08G09G10G11G12G13G14G15G16G17G19G20G21G22G23
+        G24G25G26G27G28G29G30G31G32J01J02J03R01R02R03R04R05
+        R06R07R08R09R10R11R13R14R15R16R17R18R19R20R21R22R23
+        R24R26  0  0  0  0  0  0  0  0  0  0  0  0  0  0  0
++        12 12 12 12 12  9  9  9  8  9  8  8  8  8  6  7  7
++         6  7  7  7  6  7  6  6  7  6  6  6  7  3  3  3  4
++         3  3  3  4  3  3  3  3  3  3  3  4  3  3  3  3  3
++         3  4  3  3  3  3  4  3  3 11  0 12  6  6  5  5  5
++         5  5  5  5  6  5  5  5  6  5  6  6  5  5  5  5  5
++         6  8  0  0  0  0  0  0  0  0  0  0  0  0  0  0  0
%c M  cc GPS ccc cccc cccc cccc cccc ccccc ccccc ccccc ccccc
%c cc cc ccc ccc cccc cccc cccc cccc ccccc ccccc ccccc ccccc
%f  0.0000000  0.000000000  0.00000000000  0.000000000000000
%f  0.0000000  0.000000000  0.00000000000  0.000000000000000
%i    0    0    0    0      0      0      0      0         0
%i    0    0    0    0      0      0      0      0         0
/* INFORMATION & ANALYSIS CENTER (IAC) OF MCC   (RAPID DATA)
/* S/V CLOCKS ARE ALIGNED TO GPS & GLONASS TIME RESPECTIVELY
/* USING THE BROADCAST EPHEMERIS                            
/* PCV:IGS14_1984 OL/AL:FES2004  NONE     YN ORB:CoN CLK:CoN
*  2018 02 16 22  0  0.00000000
PC01 -32279.882046  27101.609660   -951.959758    375.966255
PC02   4446.285309  41915.367049   1044.177531   -231.493116
PC03 -14789.529917  39505.015083   -190.540916    -76.963781
PC04 -39606.238582  14388.827341   -432.688058   -108.611535
PC05  21913.588213  36012.296859   1399.280191   -154.255788
PC06  -7704.574594  34643.385064  23246.527271   -680.768304
PC07 -17522.011802  21142.505632 -31967.255499   -314.072519
PC08 -23188.712354  33558.609325  10223.645387    179.638206
PC09   1532.934468  40863.705403  11070.207965   -396.880810
PC10  -1510.764929  25476.333887 -33431.817105    -21.500482
PC11  15845.165164   1043.657097  23015.963081   -394.387048
PC12   5876.268097  20410.486570  18112.979273    381.838577
PC13 -11065.365263  33999.640836  22195.452709   -208.683785
PC14  22100.979025  11251.026548 -12802.602917    216.719019
PE01  -2488.393856  15937.145308 -24820.191982   -278.336148
PE02   2482.796510 -15936.866883  24818.903354      4.924666
PE03  -1489.298334 -27086.798636 -11854.358918      0.046469
PE04  14598.814127  24938.424510  -6427.462095     22.641949
PE05  12538.015644 -13363.201798 -23247.739616    320.619387
PE07 -19195.964727  -8143.138407  21014.009193     82.976344
PE08 -14799.388694 -24821.167444   6425.367944   6640.494779
PE09  19159.052715   8056.635520 -21069.183857   6872.915426
PE11  20536.578808  -3133.847288  21082.986806   1848.657886
PE12   7978.691122  15790.397393  23745.918596   3522.971994
PE14 -18066.830057 -10993.269395 -23461.064108   6629.881157
PE18   9685.039311  17737.842623  14793.819829   6422.348008
PE19    218.225551  26358.687794  13475.028338     19.482091
PE24  29283.440349   4403.535757    122.423061   6858.628517
PE26 -21094.152149  19795.184488  -6257.498153   6262.326870
PE30 -19044.085456 -14443.864973  17442.433967   6071.429026
PG01   3436.483005 -16997.517788 -20169.238524    -29.217504
PG02 -21532.889926  14976.490617   3638.536943    198.325511
PG03  -5980.372898 -18930.549671 -17684.857807     10.778235
PG05 -14015.671346   8692.516976  20756.315617    -14.151108
PG06 -24555.976273   5706.894863  -8351.407734    414.388149
PG07 -13312.382035 -10027.661307  20974.936806    235.740709
PG08   5318.573991 -25342.547764   5632.232189    -91.435862
PG09  -9178.474187 -20237.521147  14502.818231    501.484242
PG10  23695.198639   9543.997727  -7520.366450    160.729787
PG11   3800.394125 -22300.473875 -14583.746857   -736.363727
PG12   3302.534338  18416.351111 -19109.017774    349.928111
PG13 -12256.518393  20180.821341  12055.243948    -95.602990
PG14  15369.236650  -5755.643916 -20568.049334    -94.044234
PG15  -3111.651110  25733.311144   4551.972790   -356.972052
PG16  14041.983980  -6841.426310  21409.504383     32.106074
PG17 -14084.556424  -4395.371668 -21710.427059   -122.660905
PG19 -15382.656435   4221.564850 -21552.879547   -456.609786
PG20   5746.658839  18406.876382  18142.215120    501.070648
PG21  15821.741961   8293.506681  20470.450214   -429.598404
PG22   1384.654000 -16892.900577 -20203.030998   -293.982300
PG23  -1635.936012 -25972.641955   4261.959945   -218.930938
PG24  -6244.603003  18341.826807 -18154.763646    -46.136732
PG25  15827.919407  19024.149362 -10130.480947   -539.867027
PG26  21328.801377    493.557672  15899.489298   -248.042194
PG27  12148.164273 -16854.399393  16338.197416    367.322384
PG28 -21944.799144 -14125.236632  -4169.469489    689.408259
PG29   5007.342784  23209.024966  11913.746860    495.296651
PG30 -20295.184152  -4459.756816  16627.205696    102.919949
PG31  25129.547904  -5980.577362  -7017.487378    141.255434
PG32  14999.488758   3743.156141 -21577.960821   -532.024153
PJ01 -26068.757274  22457.076780  29493.674844   -101.852763
PJ02 -34780.199498  18048.883569 -11177.364684 999999.999999
PJ03 -19684.831245  29256.188900 -18451.333136      0.223100
PR01  -5360.587890 -21067.847469 -13359.168866     22.188064
PR02 -15007.861950 -19728.544604   5946.881135    295.594699
PR03 -14722.809858  -6125.056672  19930.165116    124.327865
PR04  -5506.642244  11373.009221  22172.612178    250.159304
PR05   6532.427672  21583.120354  11905.254570   -249.263239
PR06  15574.405685  19076.072362  -6719.922818    127.156845
PR07  14613.365798   5854.625370 -20052.654507    -30.283686
PR08   5936.006403 -10791.311699 -22290.633011     38.344737
PR09  17924.492622   7856.380639 -16314.496666     47.913030
PR10  25469.289262     -7.142176    -38.726984     18.433418
PR11  17769.666294  -7914.479018  16491.575682    -21.980111
PR13 -18641.000316  -7062.921124  15893.803100     -7.541831
PR14 -25508.877267    -42.999994    312.519154     24.758196
PR15 -20384.109373   6407.875427 -13842.801161     -6.506363
PR16   -216.462493  10970.937725 -23049.766911     85.774509
PR17 -14032.914666   5379.925392 -20585.697361    109.780297
PR18 -14966.677867  19167.150561  -7788.343495    185.096192
PR19  -7975.420066  22174.754180   9776.189616    -44.806422
PR20   4729.971696  11722.466983  22178.550045   -327.465435
PR21  14062.034671  -5705.836699  20516.238247     28.830741
PR22  14565.182098 -19959.722525   6065.512154    -19.381092
PR23   5452.148967 -21375.393784 -12802.614425    136.685883
PR24  -5457.837290 -11004.586701 -22369.521866   -162.544499
PR26   4895.193216  11780.014393  22101.181967      0.182465
EOF
